LEMUR-2-GREENBERG       
1 42837U 17042N   26068.46200528  .00019778  00000+0  72539-3 0  9997
2 42837  97.3781 249.8007 0009157   4.0119 356.1192 15.27971352473146
STARLINK-36094          
1 66851U 25281D   26068.14752402  .00039027  00000+0  14207-2 0  9997
2 66851  43.0032 346.4497 0001549 260.6256  99.4420 15.27569557 16101
